OBJECT_NAME,OBJECT_ID,EPOCH,MEAN_MOTION,ECCENTRICITY,INCLINATION,RA_OF_ASC_NODE,ARG_OF_PERICENTER,MEAN_ANOMALY,EPHEMERIS_TYPE,CLASSIFICATION_TYPE,NORAD_CAT_ID,ELEMENT_SET_NO,REV_AT_EPOCH,BSTAR,MEAN_MOTION_DOT,MEAN_MOTION_DDOT
STARLINK-3004,2021-059B,2025-05-19T19:38:47.223168,15.01260162,.0001944,97.6594,265.4643,91.5332,268.6115,0,U,48880,999,21470,.67998E-4,.814E-5,0
STARLINK-3005,2021-059C,2025-05-19T19:29:13.323264,15.01248891,.0002228,97.6580,265.4085,94.5768,265.5711,0,U,48881,999,21471,-.50234E-4,-.704E-5,0
TYVAK-0173,2021-059P,2025-05-19T10:37:18.224256,14.79633010,.0007725,95.9856,309.4988,286.5072,73.5296,0,U,48892,999,20997,.31416E-3,.2325E-4,0
TUBIN,2021-059X,2025-05-19T19:23:08.641824,15.58724708,.000237,97.6749,307.3776,297.7817,62.3197,0,U,48900,999,21680,.52539E-3,.40468E-3,0
MANDRAKE 2 ABLE,2021-059AE,2025-05-19T09:40:56.412480,15.39147257,.0005473,97.6873,299.8201,356.7238,3.3969,0,U,48907,999,21627,.35507E-3,.13703E-3,0
MANDRAKE 2 BAKER,2021-059AF,2025-05-19T10:24:00.594144,15.40860983,.0004317,97.6876,300.9315,337.8342,22.2716,0,U,48908,999,21633,.38418E-3,.15696E-3,0
PACE-1,2021-059AG,2025-05-19T09:15:45.482112,15.45506307,.0003967,97.6765,301.3064,328.1404,31.9603,0,U,48909,999,21646,.41909E-3,.20037E-3,0
YAM-2,2021-059AJ,2025-05-19T11:08:43.478304,15.73404067,.0003387,97.6700,312.7135,255.9567,104.1320,0,U,48911,999,21709,.68705E-3,.95895E-3,0
YAM-3,2021-059AN,2025-05-19T16:59:17.507328,15.37633922,.0005701,97.6819,299.7776,340.4612,19.6413,0,U,48915,999,21632,.25435E-3,.9314E-4,0
ICEYE-X13,2021-059AP,2025-05-19T20:27:51.769728,15.58347669,.0002102,97.6541,301.0003,23.1514,336.9835,0,U,48916,999,21645,.55679E-3,.42299E-3,0
ICEYE-X15,2021-059AQ,2025-05-19T12:51:58.340160,15.81321428,.0005211,97.6358,319.3618,209.3354,150.7621,0,U,48917,999,21764,.50089E-3,.99251E-3,0
ICEYE-X11,2021-059AR,2025-05-19T20:05:54.515328,15.45302493,.0008864,97.6545,301.9072,346.0870,14.0133,0,U,48918,999,21655,.40383E-3,.1919E-3,0
FARADAY_PHOENIX,2021-059AX,2025-05-19T10:09:38.561472,15.42963310,.0007996,97.6842,303.6626,323.8659,36.2046,0,U,48924,999,21650,.34714E-3,.15214E-3,0
HAWK-3B,2021-059BE,2025-05-19T09:58:10.539264,15.44837557,.000722,97.6636,302.7433,330.0474,30.0360,0,U,48931,999,21665,.35494E-3,.16576E-3,0
HAWK-3C,2021-059BX,2025-05-19T17:44:10.640256,15.44840514,.0007841,97.6870,307.8037,332.2989,27.7840,0,U,48948,999,21670,.32142E-3,.15002E-3,0
DEMO8 (TENZING),2021-059CA,2025-05-19T10:42:54.774720,15.39834691,.0008647,97.6914,303.1542,342.1395,17.9545,0,U,48951,999,21644,.32445E-3,.12807E-3,0
ARTHUR-1,2021-059CC,2025-05-19T19:45:48.316896,15.58481558,.0004366,97.6704,312.2781,283.9456,76.1314,0,U,48953,999,21714,.45667E-3,.34826E-3,0
ASTROCAST-0201,2021-059CD,2025-05-19T10:56:43.405152,15.53880595,.0004342,97.6551,306.5119,2.2916,357.8356,0,U,48954,999,21681,.48681E-3,.31318E-3,0
ASTROCAST-0203,2021-059CE,2025-05-19T12:54:50.790240,15.53941426,.000282,97.6561,306.1354,338.5893,21.5241,0,U,48955,999,21682,.44908E-3,.28931E-3,0
DEMO9 (AURORA),2021-059CF,2025-05-19T17:45:13.856544,15.65848713,.0004804,97.6720,313.1970,278.6121,81.4594,0,U,48956,999,21715,.54184E-3,.55122E-3,0
HAWK-3A,2021-059CG,2025-05-19T09:57:38.105568,15.44837295,.0007814,97.6754,305.1159,326.3888,33.6863,0,U,48957,999,21665,.35224E-3,.16451E-3,0
SHERPA-FX2 & TAGSAT-2,2021-059CH,2025-05-19T09:58:37.911648,15.40888893,.0008621,97.6815,303.6743,332.0991,27.9791,0,U,48958,999,21651,.32066E-3,.13105E-3,0
ASTROCAST-0205,2021-059CK,2025-05-19T10:26:10.880160,15.53891770,.0006113,97.6523,306.2939,287.5467,72.5117,0,U,48960,999,21681,.54544E-3,.35147E-3,0
NAPA-2,2021-059CN,2025-05-19T18:54:14.072832,15.45696606,.0005274,97.6772,300.7117,327.7871,32.3054,0,U,48963,999,21641,.36933E-3,.1776E-3,0
SPARTAN,2021-059CP,2025-05-19T10:27:14.558688,15.46162360,.0002464,97.6772,303.4188,327.4816,32.6280,0,U,48964,999,21658,.42376E-3,.2072E-3,0
W-CUBE,2021-059CQ,2025-05-19T17:44:13.645248,15.67240327,.0003968,97.6685,309.1130,266.7682,93.3123,0,U,48965,999,21691,.66287E-3,.71462E-3,0
ONEWEB-0249,2021-060A,2025-05-19T12:57:21.329280,13.16593091,.0001837,87.9022,307.2444,97.0609,263.0731,0,U,48967,999,18781,.28701E-3,.123E-5,0
ONEWEB-0250,2021-060B,2025-05-19T12:18:10.136448,13.25806378,.0002515,87.9020,306.2946,115.7926,244.3469,0,U,48968,999,18805,.16082E-3,.84E-6,0
ONEWEB-0252,2021-060D,2025-05-19T11:53:33.052416,13.16593162,.0001634,87.9020,307.2462,82.9328,277.1989,0,U,48970,999,18785,-.85666E-5,.1E-6,0
ONEWEB-0253,2021-060E,2025-05-19T17:05:54.071232,13.16593629,.0001602,87.9021,307.2080,99.2812,260.8500,0,U,48971,999,18909,.48549E-4,.31E-6,0
