STARLINK-3004           
1 48880U 21059B   25139.81860212  .00000814  00000+0  67998-4 0  9998
2 48880  97.6594 265.4643 0001944  91.5332 268.6115 15.01260162214708
STARLINK-3005           
1 48881U 21059C   25139.81195976 -.00000704  00000+0 -50234-4 0  9992
2 48881  97.6580 265.4085 0002228  94.5768 265.5711 15.01248891214710
TYVAK-0173              
1 48892U 21059P   25139.44257204  .00002325  00000+0  31416-3 0  9995
2 48892  95.9856 309.4988 0007725 286.5072  73.5296 14.79633010209970
TUBIN                   
1 48900U 21059X   25139.80773891  .00040468  00000+0  52539-3 0  9999
2 48900  97.6749 307.3776 0002370 297.7817  62.3197 15.58724708216803
MANDRAKE 2 ABLE         
1 48907U 21059AE  25139.40343070  .00013703  00000+0  35507-3 0  9992
2 48907  97.6873 299.8201 0005473 356.7238   3.3969 15.39147257216276
MANDRAKE 2 BAKER        
1 48908U 21059AF  25139.43334021  .00015696  00000+0  38418-3 0  9999
2 48908  97.6876 300.9315 0004317 337.8342  22.2716 15.40860983216339
PACE-1                  
1 48909U 21059AG  25139.38594308  .00020037  00000+0  41909-3 0  9994
2 48909  97.6765 301.3064 0003967 328.1404  31.9603 15.45506307216463
YAM-2                   
1 48911U 21059AJ  25139.46439211  .00095895  00000+0  68705-3 0  9994
2 48911  97.6700 312.7135 0003387 255.9567 104.1320 15.73404067217093
YAM-3                   
1 48915U 21059AN  25139.70784152  .00009314  00000+0  25435-3 0  9996
2 48915  97.6819 299.7776 0005701 340.4612  19.6413 15.37633922216328
ICEYE-X13               
1 48916U 21059AP  25139.85268252  .00042299  00000+0  55679-3 0  9993
2 48916  97.6541 301.0003 0002102  23.1514 336.9835 15.58347669216459
ICEYE-X15               
1 48917U 21059AQ  25139.53609190  .00099251  00000+0  50089-3 0  9999
2 48917  97.6358 319.3618 0005211 209.3354 150.7621 15.81321428217642
ICEYE-X11               
1 48918U 21059AR  25139.83743652  .00019190  00000+0  40383-3 0  9995
2 48918  97.6545 301.9072 0008864 346.0870  14.0133 15.45302493216551
FARADAY_PHOENIX         
1 48924U 21059AX  25139.42336298  .00015214  00000+0  34714-3 0  9995
2 48924  97.6842 303.6626 0007996 323.8659  36.2046 15.42963310216507
HAWK-3B                 
1 48931U 21059BE  25139.41539976  .00016576  00000+0  35494-3 0  9998
2 48931  97.6636 302.7433 0007220 330.0474  30.0360 15.44837557216659
HAWK-3C                 
1 48948U 21059BX  25139.73901204  .00015002  00000+0  32142-3 0  9998
2 48948  97.6870 307.8037 0007841 332.2989  27.7840 15.44840514216706
DEMO8 (TENZING)         
1 48951U 21059CA  25139.44646730  .00012807  00000+0  32445-3 0  9996
2 48951  97.6914 303.1542 0008647 342.1395  17.9545 15.39834691216442
ARTHUR-1                
1 48953U 21059CC  25139.82347589  .00034826  00000+0  45667-3 0  9995
2 48953  97.6704 312.2781 0004366 283.9456  76.1314 15.58481558217141
ASTROCAST-0201          
1 48954U 21059CD  25139.45605793  .00031318  00000+0  48681-3 0  9991
2 48954  97.6551 306.5119 0004342   2.2916 357.8356 15.53880595216817
ASTROCAST-0203          
1 48955U 21059CE  25139.53808785  .00028931  00000+0  44908-3 0  9992
2 48955  97.6561 306.1354 0002820 338.5893  21.5241 15.53941426216824
DEMO9 (AURORA)          
1 48956U 21059CF  25139.73974371  .00055122  00000+0  54184-3 0  9999
2 48956  97.6720 313.1970 0004804 278.6121  81.4594 15.65848713217157
HAWK-3A                 
1 48957U 21059CG  25139.41502437  .00016451  00000+0  35224-3 0  9991
2 48957  97.6754 305.1159 0007814 326.3888  33.6863 15.44837295216652
SHERPA-FX2 & TAGSAT-2   
1 48958U 21059CH  25139.41571657  .00013105  00000+0  32066-3 0  9996
2 48958  97.6815 303.6743 0008621 332.0991  27.9791 15.40888893216516
ASTROCAST-0205          
1 48960U 21059CK  25139.43484815  .00035147  00000+0  54544-3 0  9995
2 48960  97.6523 306.2939 0006113 287.5467  72.5117 15.53891770216810
NAPA-2                  
1 48963U 21059CN  25139.78766288  .00017760  00000+0  36933-3 0  9996
2 48963  97.6772 300.7117 0005274 327.7871  32.3054 15.45696606216411
SPARTAN                 
1 48964U 21059CP  25139.43558517  .00020720  00000+0  42376-3 0  9991
2 48964  97.6772 303.4188 0002464 327.4816  32.6280 15.46162360216582
W-CUBE                  
1 48965U 21059CQ  25139.73904682  .00071462  00000+0  66287-3 0  9999
2 48965  97.6685 309.1130 0003968 266.7682  93.3123 15.67240327216912
ONEWEB-0249             
1 48967U 21060A   25139.53983020  .00000123  00000+0  28701-3 0  9999
2 48967  87.9022 307.2444 0001837  97.0609 263.0731 13.16593091187813
ONEWEB-0250             
1 48968U 21060B   25139.51261732  .00000084  00000+0  16082-3 0  9992
2 48968  87.9020 306.2946 0002515 115.7926 244.3469 13.25806378188054
ONEWEB-0252             
1 48970U 21060D   25139.49552144  .00000010  00000+0 -85666-5 0  9998
2 48970  87.9020 307.2462 0001634  82.9328 277.1989 13.16593162187855
ONEWEB-0253             
1 48971U 21060E   25139.71243138  .00000031  00000+0  48549-4 0  9994
2 48971  87.9021 307.2080 0001602  99.2812 260.8500 13.16593629189091
